{
    "links": {
        "self": "http://www.neowsapp.com/rest/v1/neo/3674336?api_key=iIulBulltgU6a56xZRHN4H3l9WmuAYTsLGpBGhQ2"
    },
    "id": "3674336",
    "neo_reference_id": "3674336",
    "name": "(2014 NB3)",
    "designation": "2014 NB3",
    "nasa_jpl_url": "http://ssd.jpl.nasa.gov/sbdb.cgi?sstr=3674336",
    "absolute_magnitude_h": 24.3,
    "estimated_diameter": {
        "kilometers": {
            "estimated_diameter_min": 0.0366906138,
            "estimated_diameter_max": 0.0820427065
        },
        "meters": {
            "estimated_diameter_min": 36.6906137531,
            "estimated_diameter_max": 82.0427064882
        },
        "miles": {
            "estimated_diameter_min": 0.0227984834,
            "estimated_diameter_max": 0.0509789586
        },
        "feet": {
            "estimated_diameter_min": 120.3760332259,
            "estimated_diameter_max": 269.1689931548
        }
    },
    "is_potentially_hazardous_asteroid": false,
    "close_approach_data": [
        {
            "close_approach_date": "2014-07-13",
            "close_approach_date_full": "2014-Jul-13 09:32",
            "epoch_date_close_approach": 1405243920000,
            "relative_velocity": {
                "kilometers_per_second": "7.2757832207",
                "kilometers_per_hour": "26192.8195943556",
                "miles_per_hour": "16275.1994862817"
            },
            "miss_distance": {
                "astronomical": "0.0965646279",
                "lunar": "37.5636402531",
                "kilometers": "14445862.651182573",
                "miles": "8976242.8175345874"
            },
            "orbiting_body": "Earth"
        }
    ],
    "orbital_data": {
        "orbit_id": "5",
        "orbit_determination_date": "2017-04-06 08:39:43",
        "first_observation_date": "2014-07-02",
        "last_observation_date": "2014-07-20",
        "data_arc_in_days": 18,
        "observations_used": 13,
        "orbit_uncertainty": "8",
        "minimum_orbit_intersection": ".0870662",
        "jupiter_tisserand_invariant": "3.526",
        "epoch_osculation": "2456841.5",
        "eccentricity": ".4955432876307983",
        "semi_major_axis": "2.147505671494896",
        "inclination": "8.848841295857387",
        "ascending_node_longitude": "270.1426027923611",
        "orbital_period": "1149.475994793651",
        "perihelion_distance": "1.08332365083653",
        "perihelion_argument": "28.24600795278237",
        "aphelion_distance": "3.211687692153262",
        "perihelion_time": "2456860.855783103770",
        "mean_anomaly": "353.9380361582861",
        "mean_motion": ".3131861836441617",
        "equinox": "J2000",
        "orbit_class": {
            "orbit_class_type": "AMO",
            "orbit_class_description": "Near-Earth asteroid orbits similar to that of 1221 Amor",
            "orbit_class_range": "1.017 AU < q (perihelion) < 1.3 AU"
        }
    },
    "is_sentry_object": false
}